CCSDS_OMM_VERS = 2.0
CREATION_DATE  = 
ORIGINATOR     = 

OBJECT_NAME    = TIANHUI 7
OBJECT_ID      = 2025-314A
CENTER_NAME    = EARTH
REF_FRAME      = TEME
TIME_SYSTEM    = UTC
MEAN_ELEMENT_THEORY = SGP/SGP4

EPOCH          = 2026-01-08T03:21:31.038912
MEAN_MOTION    = 15.25383404
ECCENTRICITY   = .00013928
INCLINATION    = 97.4205
RA_OF_ASC_NODE = 85.2818
ARG_OF_PERICENTER = 102.4970
MEAN_ANOMALY   = 257.6424

EPHEMERIS_TYPE = 0
CLASSIFICATION_TYPE = U
NORAD_CAT_ID   = 67300
ELEMENT_SET_NO = 999
REV_AT_EPOCH   = 138
BSTAR          = .82629326E-4
MEAN_MOTION_DOT = .2013E-4
MEAN_MOTION_DDOT = 0

CCSDS_OMM_VERS = 2.0
CREATION_DATE  = 
ORIGINATOR     = 

OBJECT_NAME    = CZ-4B R/B
OBJECT_ID      = 2025-314B
CENTER_NAME    = EARTH
REF_FRAME      = TEME
TIME_SYSTEM    = UTC
MEAN_ELEMENT_THEORY = SGP/SGP4

EPOCH          = 2026-01-09T05:51:33.558624
MEAN_MOTION    = 15.68253020
ECCENTRICITY   = .01425251
INCLINATION    = 97.3746
RA_OF_ASC_NODE = 86.9476
ARG_OF_PERICENTER = 341.2910
MEAN_ANOMALY   = 18.3142

EPHEMERIS_TYPE = 0
CLASSIFICATION_TYPE = U
NORAD_CAT_ID   = 67301
ELEMENT_SET_NO = 999
REV_AT_EPOCH   = 154
BSTAR          = .58129242E-3
MEAN_MOTION_DOT = .115694E-2
MEAN_MOTION_DDOT = .5972271E-5

CCSDS_OMM_VERS = 2.0
CREATION_DATE  = 
ORIGINATOR     = 

OBJECT_NAME    = 2025-315A
OBJECT_ID      = 2025-315A
CENTER_NAME    = EARTH
REF_FRAME      = TEME
TIME_SYSTEM    = UTC
MEAN_ELEMENT_THEORY = SGP/SGP4

EPOCH          = 2025-12-31T14:33:49.080384
MEAN_MOTION    = 2.27864601
ECCENTRICITY   = .72957684
INCLINATION    = 19.4970
RA_OF_ASC_NODE = 100.4602
ARG_OF_PERICENTER = 180.0375
MEAN_ANOMALY   = 168.0127

EPHEMERIS_TYPE = 0
CLASSIFICATION_TYPE = U
NORAD_CAT_ID   = 67302
ELEMENT_SET_NO = 999
REV_AT_EPOCH   = 2
BSTAR          = .11928835E-2
MEAN_MOTION_DOT = .8137E-4
MEAN_MOTION_DDOT = 0

CCSDS_OMM_VERS = 2.0
CREATION_DATE  = 
ORIGINATOR     = 

OBJECT_NAME    = CZ-7A R/B
OBJECT_ID      = 2025-315B
CENTER_NAME    = EARTH
REF_FRAME      = TEME
TIME_SYSTEM    = UTC
MEAN_ELEMENT_THEORY = SGP/SGP4

EPOCH          = 2026-01-08T21:05:18.498048
MEAN_MOTION    = 2.42004729
ECCENTRICITY   = .7208117
INCLINATION    = 19.5394
RA_OF_ASC_NODE = 96.9694
ARG_OF_PERICENTER = 185.5726
MEAN_ANOMALY   = 156.3978

EPHEMERIS_TYPE = 0
CLASSIFICATION_TYPE = U
NORAD_CAT_ID   = 67303
ELEMENT_SET_NO = 999
REV_AT_EPOCH   = 22
BSTAR          = .30544482E-2
MEAN_MOTION_DOT = .130963E-2
MEAN_MOTION_DDOT = -.173131E-6

CCSDS_OMM_VERS = 2.0
CREATION_DATE  = 
ORIGINATOR     = 

OBJECT_NAME    = CSG-3
OBJECT_ID      = 2026-001A
CENTER_NAME    = EARTH
REF_FRAME      = TEME
TIME_SYSTEM    = UTC
MEAN_ELEMENT_THEORY = SGP/SGP4

EPOCH          = 2026-01-09T06:44:49.364160
MEAN_MOTION    = 14.81532004
ECCENTRICITY   = .00038706
INCLINATION    = 97.8605
RA_OF_ASC_NODE = 195.2767
ARG_OF_PERICENTER = 157.2201
MEAN_ANOMALY   = 202.9184

EPHEMERIS_TYPE = 0
CLASSIFICATION_TYPE = U
NORAD_CAT_ID   = 67304
ELEMENT_SET_NO = 999
REV_AT_EPOCH   = 92
BSTAR          = .89989898E-4
MEAN_MOTION_DOT = .654E-5
MEAN_MOTION_DDOT = 0

CCSDS_OMM_VERS = 2.0
CREATION_DATE  = 
ORIGINATOR     = 

OBJECT_NAME    = STARLINK-36490
OBJECT_ID      = 2026-002A
CENTER_NAME    = EARTH
REF_FRAME      = TEME
TIME_SYSTEM    = UTC
MEAN_ELEMENT_THEORY = SGP/SGP4

EPOCH          = 2026-01-09T06:00:00.999648
MEAN_MOTION    = 16.01956444
ECCENTRICITY   = .00018134
INCLINATION    = 43.0000
RA_OF_ASC_NODE = 311.8151
ARG_OF_PERICENTER = 262.7529
MEAN_ANOMALY   = 142.5672

EPHEMERIS_TYPE = 0
CLASSIFICATION_TYPE = U
NORAD_CAT_ID   = 67305
ELEMENT_SET_NO = 999
REV_AT_EPOCH   = 192
BSTAR          = -.14789355E-2
MEAN_MOTION_DOT = -.884801E-2
MEAN_MOTION_DDOT = .26813494E-3

CCSDS_OMM_VERS = 2.0
CREATION_DATE  = 
ORIGINATOR     = 

OBJECT_NAME    = STARLINK-36488
OBJECT_ID      = 2026-002B
CENTER_NAME    = EARTH
REF_FRAME      = TEME
TIME_SYSTEM    = UTC
MEAN_ELEMENT_THEORY = SGP/SGP4

EPOCH          = 2026-01-09T06:00:00.999648
MEAN_MOTION    = 16.02028534
ECCENTRICITY   = .00019306
INCLINATION    = 43.0000
RA_OF_ASC_NODE = 311.8128
ARG_OF_PERICENTER = 265.7013
MEAN_ANOMALY   = 140.4514

EPHEMERIS_TYPE = 0
CLASSIFICATION_TYPE = U
NORAD_CAT_ID   = 67306
ELEMENT_SET_NO = 999
REV_AT_EPOCH   = 186
BSTAR          = -.14694974E-2
MEAN_MOTION_DOT = -.882941E-2
MEAN_MOTION_DDOT = .2673244E-3

CCSDS_OMM_VERS = 2.0
CREATION_DATE  = 
ORIGINATOR     = 

OBJECT_NAME    = STARLINK-36481
OBJECT_ID      = 2026-002C
CENTER_NAME    = EARTH
REF_FRAME      = TEME
TIME_SYSTEM    = UTC
MEAN_ELEMENT_THEORY = SGP/SGP4

EPOCH          = 2026-01-09T06:00:00.999648
MEAN_MOTION    = 16.02239930
ECCENTRICITY   = .000197
INCLINATION    = 43.0000
RA_OF_ASC_NODE = 311.8078
ARG_OF_PERICENTER = 266.5905
MEAN_ANOMALY   = 141.6173

EPHEMERIS_TYPE = 0
CLASSIFICATION_TYPE = U
NORAD_CAT_ID   = 67307
ELEMENT_SET_NO = 999
REV_AT_EPOCH   = 186
BSTAR          = -.14733394E-2
MEAN_MOTION_DOT = -.896257E-2
MEAN_MOTION_DDOT = .27534607E-3

CCSDS_OMM_VERS = 2.0
CREATION_DATE  = 
ORIGINATOR     = 

OBJECT_NAME    = STARLINK-36449
OBJECT_ID      = 2026-002D
CENTER_NAME    = EARTH
REF_FRAME      = TEME
TIME_SYSTEM    = UTC
MEAN_ELEMENT_THEORY = SGP/SGP4

EPOCH          = 2026-01-09T06:00:00.999648
MEAN_MOTION    = 16.02336217
ECCENTRICITY   = .00020242
INCLINATION    = 43.0000
RA_OF_ASC_NODE = 311.8054
ARG_OF_PERICENTER = 268.3763
MEAN_ANOMALY   = 140.7830

EPHEMERIS_TYPE = 0
CLASSIFICATION_TYPE = U
NORAD_CAT_ID   = 67308
ELEMENT_SET_NO = 999
REV_AT_EPOCH   = 192
BSTAR          = -.14686737E-2
MEAN_MOTION_DOT = -.898516E-2
MEAN_MOTION_DDOT = .27690625E-3

CCSDS_OMM_VERS = 2.0
CREATION_DATE  = 
ORIGINATOR     = 

OBJECT_NAME    = STARLINK-36482
OBJECT_ID      = 2026-002E
CENTER_NAME    = EARTH
REF_FRAME      = TEME
TIME_SYSTEM    = UTC
MEAN_ELEMENT_THEORY = SGP/SGP4

EPOCH          = 2026-01-09T06:00:00.999648
MEAN_MOTION    = 16.02846680
ECCENTRICITY   = .00019506
INCLINATION    = 43.0003
RA_OF_ASC_NODE = 311.7935
ARG_OF_PERICENTER = 266.4771
MEAN_ANOMALY   = 147.6236

EPHEMERIS_TYPE = 0
CLASSIFICATION_TYPE = U
NORAD_CAT_ID   = 67309
ELEMENT_SET_NO = 999
REV_AT_EPOCH   = 186
BSTAR          = -.14356144E-2
MEAN_MOTION_DOT = -.905265E-2
MEAN_MOTION_DDOT = .2823084E-3

CCSDS_OMM_VERS = 2.0
CREATION_DATE  = 
ORIGINATOR     = 

OBJECT_NAME    = STARLINK-36491
OBJECT_ID      = 2026-002F
CENTER_NAME    = EARTH
REF_FRAME      = TEME
TIME_SYSTEM    = UTC
MEAN_ELEMENT_THEORY = SGP/SGP4

EPOCH          = 2026-01-09T06:00:00.999648
MEAN_MOTION    = 16.02169355
ECCENTRICITY   = .00018501
INCLINATION    = 43.0001
RA_OF_ASC_NODE = 311.8101
ARG_OF_PERICENTER = 263.5537
MEAN_ANOMALY   = 143.7965

EPHEMERIS_TYPE = 0
CLASSIFICATION_TYPE = U
NORAD_CAT_ID   = 67310
ELEMENT_SET_NO = 999
REV_AT_EPOCH   = 186
BSTAR          = -.14669746E-2
MEAN_MOTION_DOT = -.888714E-2
MEAN_MOTION_DDOT = .27093479E-3

CCSDS_OMM_VERS = 2.0
CREATION_DATE  = 
ORIGINATOR     = 

OBJECT_NAME    = STARLINK-36495
OBJECT_ID      = 2026-002G
CENTER_NAME    = EARTH
REF_FRAME      = TEME
TIME_SYSTEM    = UTC
MEAN_ELEMENT_THEORY = SGP/SGP4

EPOCH          = 2026-01-09T06:00:00.999648
MEAN_MOTION    = 16.02452167
ECCENTRICITY   = .00019479
INCLINATION    = 43.0002
RA_OF_ASC_NODE = 311.8027
ARG_OF_PERICENTER = 266.0335
MEAN_ANOMALY   = 144.1938

EPHEMERIS_TYPE = 0
CLASSIFICATION_TYPE = U
NORAD_CAT_ID   = 67311
ELEMENT_SET_NO = 999
REV_AT_EPOCH   = 202
BSTAR          = -.14618995E-2
MEAN_MOTION_DOT = -.900505E-2
MEAN_MOTION_DDOT = .27838187E-3

