TIANHUI 7               
1 67300U 25314A   26008.13994258  .00002013  00000+0  82629-4 0  9994
2 67300  97.4205  85.2818 0001392 102.4970 257.6424 15.25383404  1382
CZ-4B R/B               
1 67301U 25314B   26009.24413841  .00115694  59723-5  58129-3 0  9991
2 67301  97.3746  86.9476 0142525 341.2910  18.3142 15.68253020  1545
2025-315A               
1 67302U 25315A   25365.60681806  .00008137  00000+0  11929-2 0  9992
2 67302  19.4970 100.4602 7295768 180.0375 168.0127  2.27864601    24
CZ-7A R/B               
1 67303U 25315B   26008.87868632  .00130963 -17313-6  30544-2 0  9991
2 67303  19.5394  96.9694 7208117 185.5726 156.3978  2.42004729   228
CSG-3                   
1 67304U 26001A   26009.28112690  .00000654  00000+0  89990-4 0  9998
2 67304  97.8605 195.2767 0003870 157.2201 202.9184 14.81532004   925
STARLINK-36490          
1 67305U 26002A   26009.25001157 -.00884801  26813-3 -14789-2 0  9994
2 67305  43.0000 311.8151 0001813 262.7529 142.5672 16.01956444  1925
STARLINK-36488          
1 67306U 26002B   26009.25001157 -.00882941  26732-3 -14695-2 0  9994
2 67306  43.0000 311.8128 0001930 265.7013 140.4514 16.02028534  1867
STARLINK-36481          
1 67307U 26002C   26009.25001157 -.00896257  27535-3 -14733-2 0  9995
2 67307  43.0000 311.8078 0001970 266.5905 141.6173 16.02239930  1863
STARLINK-36449          
1 67308U 26002D   26009.25001157 -.00898516  27691-3 -14687-2 0  9997
2 67308  43.0000 311.8054 0002024 268.3763 140.7830 16.02336217  1924
STARLINK-36482          
1 67309U 26002E   26009.25001157 -.00905265  28231-3 -14356-2 0  9992
2 67309  43.0003 311.7935 0001950 266.4771 147.6236 16.02846680  1869
STARLINK-36491          
1 67310U 26002F   26009.25001157 -.00888714  27093-3 -14670-2 0  9997
2 67310  43.0001 311.8101 0001850 263.5537 143.7965 16.02169355  1865
STARLINK-36495          
1 67311U 26002G   26009.25001157 -.00900505  27838-3 -14619-2 0  9991
2 67311  43.0002 311.8027 0001947 266.0335 144.1938 16.02452167  2025
